#cP2022  3 25  0  0  0.00000000     576 d+D   IGb14 EXT AIUB
## 2202 432000.00000000   300.00000000 59663 0.0000000000000
+   76   G01G02G03G04G05G06G07G08G09G10G11G12G13G14G15G16G17
+        G18G19G21G22G23G24G25G26G27G28G29G30G31G32R01R02R03
+        R04R05R07R08R09R12R13R14R15R17R18R19R20R21R22R24E01
+        E02E03E04E05E07E08E09E10E11E12E13E14E15E18E19E21E24
+        E25E26E27E30E31E33E34E36  0  0  0  0  0  0  0  0  0
++         6  7  6  8  7  6  7  6  5  5  8  7  7  7  7  7  7
++         8  7  8  8  6  6  6  5  6  7  7  6  7  6  8  6  7
++         7  7  7  6  7  7  8  7  7  8  7  8  9  8  8  8  5
++         5  6  7  6  7  6  7  7  7  7  6  7  7  7  8  6  6
++         6  6  6  6  6  7  7  7  0  0  0  0  0  0  0  0  0
%c M  cc GPS ccc cccc cccc cccc cccc ccccc ccccc ccccc ccccc
%c cc cc ccc ccc cccc cccc cccc cccc ccccc ccccc ccccc ccccc
%f  1.2500000  1.025000000  0.00000000000  0.000000000000000
%f  0.0000000  0.000000000  0.00000000000  0.000000000000000
%i    0    0    0    0      0      0      0      0         0
%i    0    0    0    0      0      0      0      0         0
/* Center for Orbit Determination in Europe (CODE)          
/* Ultra-rapid GRE orbits starting year-day 22084 00 hour   
/* Observed/predicted: 24/24 hours (data used up to 084X)   
/* PCV:IGS14      OL/AL:FES2014b NONE     YN ORB:CoN CLK:BRD
*  2022  3 25 16 45  0.00000000
PG01  11283.754382 -20870.000592 -11851.515373    400.427694
PG02 -20688.264429  14304.693581  -8084.800672   -652.628940
PG03   3074.398233 -14728.029117 -21994.311851   -179.113943
PG04   1847.864521 -24719.904705  -9411.950242   -181.057733
PG05 -19108.965319   7247.169787  16884.394311    -75.940932
PG06 -17948.934109   -952.283755 -19515.611803    243.513755
PG07  -4284.328185 -16273.937837  20828.216235    317.729026
PG08   7948.431990 -18105.346715  17527.413010    -61.260336
PG09  -7128.864470 -25546.885746    945.812540   -347.760262
PG10  22981.468718  11832.235924   6888.167514   -357.907058
PG11 -22551.439573  11242.223665  -8383.915549    -55.732436
PG12  -7656.890031  13214.412611 -21989.064935   -190.296499
PG13 -13226.251487  10047.953342  20535.159499    282.866374
PG14 -21921.328530 -13154.654513   7341.214790    -97.154535
PG15  -5807.548797  19577.339872  16409.393236    -74.046599
PG16  22423.665472  -1445.131985  14244.289616   -484.666037
PG17 -13103.607073 -17135.980239 -15031.948383    591.886390
PG18   3182.787186  16218.860174  20761.889104    211.516826
PG19 -14781.319102  -9973.459517 -20008.832764    135.703945
PG21  17646.607719 -19346.373935     -9.744012    159.794296
PG22  15291.637059   6687.774067 -20297.295854    233.025419
PG23  14698.540811  15408.483988  15926.432330     -9.761098
PG24 -12873.999053  21928.177357  -7189.577226    264.498531
PG25   7378.023471  16675.552061 -19693.102898    303.156983
PG26  26216.436429   4178.961330   3032.113798    193.597348
PG27  13671.620502  -6279.129604  21651.271482    165.193303
PG28 -24567.755485  -9701.695097   -495.019445    374.863104
PG29   3754.027069  26259.639112   -434.492325   -495.520284
PG30 -12112.560055 -10265.910102  21379.065630   -520.560521
PG31  19957.612111   -876.849184 -17854.800549   -170.515968
PG32  15402.903334  13587.731232 -16802.634584    -91.841521
PR01 -18216.099322 -10938.932682  14131.217741      7.364181
PR02  -8817.906832   6401.871494  23110.094449    513.571906
PR03   4780.359595  18600.464522  16867.547097     53.731178
PR04  15456.308895  20253.940559   1377.351293    133.576757
PR05  17616.997307  10871.837368 -14903.368968     89.991918
PR07  -5329.361857 -18851.587102 -16265.923598     33.086113
PR08 -15611.992055 -20123.147613  -1094.695165    -64.222853
PR09  21266.083433  -9164.855412  10628.805118     46.255927
PR12 -24488.438857    618.592364   7094.704240     17.586164
PR13 -22038.127588   8561.789703  -9590.697850    -19.936261
PR14  -5914.368069  11734.744895 -21858.900100     75.780173
PR15  12926.439722   7862.687291 -20522.857036     97.304105
PR17  -7068.027372  24046.810427   4663.255173    512.377852
PR18   2324.098069  17061.315486  18858.725798    111.432677
PR19  10153.555290   2481.439030  23267.179220   -182.913981
PR20  13673.041227 -16913.677144  13294.014627    -67.381443
PR21   6474.191000 -23915.464144  -6107.349921   -288.125273
PR22  -2772.220821 -16255.591023 -19434.142929   -172.816847
PR24 -13427.558451  17679.772476 -12540.835974     86.038993
PE01 -15242.299851 -16151.291763  19560.388207   -603.655858
PE02  15426.420162  16119.633533 -19468.995494    288.562742
PE03  12659.411015  26487.402842  -3741.180209   -541.091239
PE04 -18988.216518 -11844.742022  19382.531409   -992.241529
PE05  -1239.006334  25834.610702  14401.666743   -197.033054
PE07  14201.595301 -10167.583858 -23889.219755   -651.919228
PE08  18929.523165  11447.759924 -19657.383659   -501.155307
PE09 -13941.274165  10371.620789  23968.769420   -461.501901
PE10 -21973.130157   8940.232525 -17711.972809   -502.635796
PE11 -22019.997996  17609.696266  -9056.206070   4137.563964
PE12 -18623.615016   -846.702264 -22997.968285   4695.801350
PE13  22059.742809 -17174.166639   9710.681119    427.551631
PE14 -14076.419452  16621.628445 -20105.110598  -1790.764179
PE15  18471.348250    942.792183  23113.742960    755.652934
PE18   2266.165055 -26919.677171   7594.553134  -1642.267617
PE19 -11180.224327 -27368.288349   1429.483434  -1910.776282
PE21   5550.886180 -15860.378462  24362.848806   -724.605858
PE24 -25177.751122   5632.587083 -14502.099038   -524.866186
PE25  -5830.945950  15797.892049 -24342.199465   -568.055456
PE26  11957.465770 -25091.452644 -10166.546134   -953.689156
PE27  24410.944922  -6476.504338  15447.980582   -261.231462
PE30  28454.042673   7422.952770  -3490.864226   -377.366544
PE31 -28735.415307  -6635.995226   2480.709665   -494.062661
PE33  -4021.344525 -18401.182677 -22824.465280   -458.231245
PE34   4225.206623  18266.546557  22900.910279   -508.624647
PE36 -12670.132839  25089.611359   9310.944061   -350.326600
EOF
